[{"OBJECT_NAME":"STARLINK-35052","OBJECT_ID":"2025-200W","EPOCH":"2026-03-09T18:22:26.334912","MEAN_MOTION":15.05644096,"ECCENTRICITY":2.41e-5,"INCLINATION":97.6015,"RA_OF_ASC_NODE":139.8947,"ARG_OF_PERICENTER":162.8845,"MEAN_ANOMALY":197.239,"EPHEMERIS_TYPE":0,"CLASSIFICATION_TYPE":"U","NORAD_CAT_ID":65540,"ELEMENT_SET_NO":999,"REV_AT_EPOCH":2906,"BSTAR":9.8704499e-5,"MEAN_MOTION_DOT":1.364e-5,"MEAN_MOTION_DDOT":0},{"OBJECT_NAME":"CZ-6A R\/B","OBJECT_ID":"2022-031C","EPOCH":"2026-03-09T19:50:55.360896","MEAN_MOTION":15.07476837,"ECCENTRICITY":0.00174842,"INCLINATION":97.8104,"RA_OF_ASC_NODE":273.2347,"ARG_OF_PERICENTER":181.6412,"MEAN_ANOMALY":178.4761,"EPHEMERIS_TYPE":0,"CLASSIFICATION_TYPE":"U","NORAD_CAT_ID":52152,"ELEMENT_SET_NO":999,"REV_AT_EPOCH":21633,"BSTAR":0.00020233161,"MEAN_MOTION_DOT":3.012e-5,"MEAN_MOTION_DDOT":0}]
